ORBCOMM FM06            
1 25118U 97084G   24315.48443895  .00008633  00000+0  25111-2 0  9996
2 25118  45.0149 337.0104 0002825 266.5248 241.7986 14.44557671409880
ORBCOMM FM07            
1 25119U 97084H   24315.52920318  .00006797  00000+0  19916-2 0  9997
2 25119  45.0146 337.4682 0003344 234.2808 125.7732 14.44431635409885
ORBCOMM FM03            
1 25158U 98007B   24315.50531646  .00005513  00000+0  20155-2 0  9998
2 25158 107.9663  46.6822 0048773 270.4800  89.0751 14.33349428392693
ORBCOMM FM04            
1 25159U 98007C   24315.52925528  .00006026  00000+0  21917-2 0  9994
2 25159 107.9648  49.7976 0044436 268.0676  91.5374 14.33621198392873
ORBCOMM FM18            
1 25414U 98046B   24315.57943505  .00005491  00000+0  18708-2 0  9990
2 25414  44.9914 131.6375 0004546 245.7376 114.2997 14.37279623372782
ORBCOMM FM19            
1 25415U 98046C   24315.57969691  .00005525  00000+0  18886-2 0  9990
2 25415  44.9923 133.3003 0003514 234.0601 191.1134 14.37108244372749
